[{"OBJECT_NAME":"GPS BIIR-08","OBJECT_ID":"2003-005A","EPOCH":"2026-03-14T22:44:30.375456","MEAN_MOTION":2.00565678,"ECCENTRICITY":0.01486778,"INCLINATION":54.9048,"RA_OF_ASC_NODE":218.7109,"ARG_OF_PERICENTER":52.792,"MEAN_ANOMALY":1.1555,"EPHEMERIS_TYPE":0,"CLASSIFICATION_TYPE":"U","NORAD_CAT_ID":27663,"ELEMENT_SET_NO":999,"REV_AT_EPOCH":16942,"BSTAR":0,"MEAN_MOTION_DOT":1.6e-7,"MEAN_MOTION_DDOT":0},{"OBJECT_NAME":"GPS BIIR-11","OBJECT_ID":"2004-009A","EPOCH":"2026-03-14T09:06:01.528704","MEAN_MOTION":2.00557837,"ECCENTRICITY":0.01114344,"INCLINATION":54.908,"RA_OF_ASC_NODE":279.5164,"ARG_OF_PERICENTER":169.3433,"MEAN_ANOMALY":349.7979,"EPHEMERIS_TYPE":0,"CLASSIFICATION_TYPE":"U","NORAD_CAT_ID":28190,"ELEMENT_SET_NO":999,"REV_AT_EPOCH":16104,"BSTAR":0,"MEAN_MOTION_DOT":2.8e-7,"MEAN_MOTION_DDOT":0},{"OBJECT_NAME":"GPS BIIR-13","OBJECT_ID":"2004-045A","EPOCH":"2026-03-14T19:06:24.298848","MEAN_MOTION":2.00573977,"ECCENTRICITY":0.01706878,"INCLINATION":55.1887,"RA_OF_ASC_NODE":328.7004,"ARG_OF_PERICENTER":313.2377,"MEAN_ANOMALY":210.9067,"EPHEMERIS_TYPE":0,"CLASSIFICATION_TYPE":"U","NORAD_CAT_ID":28474,"ELEMENT_SET_NO":999,"REV_AT_EPOCH":15653,"BSTAR":0,"MEAN_MOTION_DOT":-6.2e-7,"MEAN_MOTION_DDOT":0},{"OBJECT_NAME":"GPS BIIR-14M","OBJECT_ID":"2005-038A","EPOCH":"2026-03-15T07:58:15.613824","MEAN_MOTION":2.00572279,"ECCENTRICITY":0.01285163,"INCLINATION":54.9547,"RA_OF_ASC_NODE":276.9637,"ARG_OF_PERICENTER":295.4886,"MEAN_ANOMALY":216.0699,"EPHEMERIS_TYPE":0,"CLASSIFICATION_TYPE":"U","NORAD_CAT_ID":28874,"ELEMENT_SET_NO":999,"REV_AT_EPOCH":14995,"BSTAR":0,"MEAN_MOTION_DOT":3.1e-7,"MEAN_MOTION_DDOT":0},{"OBJECT_NAME":"METEOSAT-9 (MSG-2)","OBJECT_ID":"2005-049B","EPOCH":"2026-03-15T01:50:28.367808","MEAN_MOTION":1.00271159,"ECCENTRICITY":3.846e-5,"INCLINATION":9.1481,"RA_OF_ASC_NODE":55.0737,"ARG_OF_PERICENTER":223.8894,"MEAN_ANOMALY":327.1212,"EPHEMERIS_TYPE":0,"CLASSIFICATION_TYPE":"U","NORAD_CAT_ID":28912,"ELEMENT_SET_NO":999,"REV_AT_EPOCH":605,"BSTAR":0,"MEAN_MOTION_DOT":1.29e-6,"MEAN_MOTION_DDOT":0},{"OBJECT_NAME":"GPS BIIR-16M","OBJECT_ID":"2006-052A","EPOCH":"2026-03-11T16:37:48.789984","MEAN_MOTION":2.00552224,"ECCENTRICITY":0.0087716,"INCLINATION":54.9554,"RA_OF_ASC_NODE":217.8682,"ARG_OF_PERICENTER":89.5016,"MEAN_ANOMALY":271.4739,"EPHEMERIS_TYPE":0,"CLASSIFICATION_TYPE":"U","NORAD_CAT_ID":29601,"ELEMENT_SET_NO":999,"REV_AT_EPOCH":14145,"BSTAR":0,"MEAN_MOTION_DOT":3.3e-7,"MEAN_MOTION_DDOT":0},{"OBJECT_NAME":"GPS BIIR-17M","OBJECT_ID":"2007-047A","EPOCH":"2026-03-14T23:46:53.549184","MEAN_MOTION":2.00560242,"ECCENTRICITY":0.01637047,"INCLINATION":54.0243,"RA_OF_ASC_NODE":83.9465,"ARG_OF_PERICENTER":86.0536,"MEAN_ANOMALY":275.8703,"EPHEMERIS_TYPE":0,"CLASSIFICATION_TYPE":"U","NORAD_CAT_ID":32260,"ELEMENT_SET_NO":999,"REV_AT_EPOCH":13492,"BSTAR":0,"MEAN_MOTION_DOT":3.7e-7,"MEAN_MOTION_DDOT":0},{"OBJECT_NAME":"GPS BIIR-18M","OBJECT_ID":"2007-062A","EPOCH":"2026-03-13T01:25:28.658208","MEAN_MOTION":2.00554193,"ECCENTRICITY":0.00331869,"INCLINATION":55.1084,"RA_OF_ASC_NODE":278.0153,"ARG_OF_PERICENTER":160.7725,"MEAN_ANOMALY":12.4048,"EPHEMERIS_TYPE":0,"CLASSIFICATION_TYPE":"U","NORAD_CAT_ID":32384,"ELEMENT_SET_NO":999,"REV_AT_EPOCH":13358,"BSTAR":0,"MEAN_MOTION_DOT":2.9e-7,"MEAN_MOTION_DDOT":0},{"OBJECT_NAME":"GOES 14","OBJECT_ID":"2009-033A","EPOCH":"2026-03-15T05:58:34.574592","MEAN_MOTION":1.00103667,"ECCENTRICITY":0.00016738,"INCLINATION":1.4456,"RA_OF_ASC_NODE":84.2524,"ARG_OF_PERICENTER":273.9126,"MEAN_ANOMALY":99.5446,"EPHEMERIS_TYPE":0,"CLASSIFICATION_TYPE":"U","NORAD_CAT_ID":35491,"ELEMENT_SET_NO":999,"REV_AT_EPOCH":565,"BSTAR":0,"MEAN_MOTION_DOT":1.08e-6,"MEAN_MOTION_DDOT":0},{"OBJECT_NAME":"GOES 15","OBJECT_ID":"2010-008A","EPOCH":"2026-03-14T22:30:10.076832","MEAN_MOTION":1.00270266,"ECCENTRICITY":0.00024959,"INCLINATION":1.0327,"RA_OF_ASC_NODE":84.9029,"ARG_OF_PERICENTER":17.6924,"MEAN_ANOMALY":110.8883,"EPHEMERIS_TYPE":0,"CLASSIFICATION_TYPE":"U","NORAD_CAT_ID":36411,"ELEMENT_SET_NO":999,"REV_AT_EPOCH":5869,"BSTAR":0,"MEAN_MOTION_DOT":2.1e-7,"MEAN_MOTION_DDOT":0},{"OBJECT_NAME":"GSAT0101 (GALILEO-PFM)","OBJECT_ID":"2011-060A","EPOCH":"2026-03-14T09:47:54.121920","MEAN_MOTION":1.70475751,"ECCENTRICITY":0.00041001,"INCLINATION":57.0247,"RA_OF_ASC_NODE":344.3347,"ARG_OF_PERICENTER":11.0277,"MEAN_ANOMALY":349.0106,"EPHEMERIS_TYPE":0,"CLASSIFICATION_TYPE":"U","NORAD_CAT_ID":37846,"ELEMENT_SET_NO":999,"REV_AT_EPOCH":8950,"BSTAR":0,"MEAN_MOTION_DOT":-8.1e-7,"MEAN_MOTION_DDOT":0},{"OBJECT_NAME":"GSAT0102 (GALILEO-FM2)","OBJECT_ID":"2011-060B","EPOCH":"2026-03-01T01:30:59.316192","MEAN_MOTION":1.70475778,"ECCENTRICITY":0.00054225,"INCLINATION":57.0301,"RA_OF_ASC_NODE":344.6971,"ARG_OF_PERICENTER":341.2092,"MEAN_ANOMALY":154.1953,"EPHEMERIS_TYPE":0,"CLASSIFICATION_TYPE":"U","NORAD_CAT_ID":37847,"ELEMENT_SET_NO":999,"REV_AT_EPOCH":8928,"BSTAR":0,"MEAN_MOTION_DOT":-1.06e-6,"MEAN_MOTION_DDOT":0},{"OBJECT_NAME":"LUCH 5A","OBJECT_ID":"2011-074B","EPOCH":"2026-03-15T05:50:35.342304","MEAN_MOTION":1.00268919,"ECCENTRICITY":0.00033799,"INCLINATION":8.5139,"RA_OF_ASC_NODE":75.1828,"ARG_OF_PERICENTER":262.702,"MEAN_ANOMALY":89.7018,"EPHEMERIS_TYPE":0,"CLASSIFICATION_TYPE":"U","NORAD_CAT_ID":37951,"ELEMENT_SET_NO":999,"REV_AT_EPOCH":5210,"BSTAR":0,"MEAN_MOTION_DOT":-4.5e-7,"MEAN_MOTION_DDOT":0},{"OBJECT_NAME":"METEOSAT-10 (MSG-3)","OBJECT_ID":"2012-035B","EPOCH":"2026-03-15T05:02:47.424768","MEAN_MOTION":1.00269366,"ECCENTRICITY":0.00023436,"INCLINATION":4.4478,"RA_OF_ASC_NODE":61.4089,"ARG_OF_PERICENTER":287.0946,"MEAN_ANOMALY":260.148,"EPHEMERIS_TYPE":0,"CLASSIFICATION_TYPE":"U","NORAD_CAT_ID":38552,"ELEMENT_SET_NO":999,"REV_AT_EPOCH":4991,"BSTAR":0,"MEAN_MOTION_DOT":-4.0e-8,"MEAN_MOTION_DDOT":0},{"OBJECT_NAME":"SARSAT 13 (METOP-B)","OBJECT_ID":"2012-049A","EPOCH":"2026-03-15T06:53:55.418208","MEAN_MOTION":14.21446634,"ECCENTRICITY":0.00013449,"INCLINATION":98.663,"RA_OF_ASC_NODE":127.61,"ARG_OF_PERICENTER":236.188,"MEAN_ANOMALY":123.917,"EPHEMERIS_TYPE":0,"CLASSIFICATION_TYPE":"U","NORAD_CAT_ID":38771,"ELEMENT_SET_NO":999,"REV_AT_EPOCH":69992,"BSTAR":7.4204623e-5,"MEAN_MOTION_DOT":1.19e-6,"MEAN_MOTION_DDOT":0},{"OBJECT_NAME":"GPS BIIF-3","OBJECT_ID":"2012-053A","EPOCH":"2026-03-14T02:09:17.761824","MEAN_MOTION":2.00565997,"ECCENTRICITY":0.0177046,"INCLINATION":53.5669,"RA_OF_ASC_NODE":147.4965,"ARG_OF_PERICENTER":64.8456,"MEAN_ANOMALY":297.0314,"EPHEMERIS_TYPE":0,"CLASSIFICATION_TYPE":"U","NORAD_CAT_ID":38833,"ELEMENT_SET_NO":999,"REV_AT_EPOCH":9753,"BSTAR":0,"MEAN_MOTION_DOT":-2.0e-8,"MEAN_MOTION_DDOT":0},{"OBJECT_NAME":"GSAT0103 (GALILEO-FM3)","OBJECT_ID":"2012-055A","EPOCH":"2026-03-14T10:46:07.247136","MEAN_MOTION":1.70473501,"ECCENTRICITY":0.00056194,"INCLINATION":55.7469,"RA_OF_ASC_NODE":104.1441,"ARG_OF_PERICENTER":286.5139,"MEAN_ANOMALY":73.502,"EPHEMERIS_TYPE":0,"CLASSIFICATION_TYPE":"U","NORAD_CAT_ID":38857,"ELEMENT_SET_NO":999,"REV_AT_EPOCH":8339,"BSTAR":0,"MEAN_MOTION_DOT":4.0e-7,"MEAN_MOTION_DDOT":0}]
