GPS BIIR-08             
1 27663U 03005A   26073.94757379  .00000016  00000+0  00000+0 0  9996
2 27663  54.9048 218.7109 0148677  52.7920   1.1555  2.00565678169420
GPS BIIR-11             
1 28190U 04009A   26073.37918436  .00000028  00000+0  00000+0 0  9990
2 28190  54.9080 279.5164 0111434 169.3433 349.7979  2.00557837161042
GPS BIIR-13             
1 28474U 04045A   26073.79611457 -.00000062  00000+0  00000+0 0  9993
2 28474  55.1887 328.7004 0170687 313.2377 210.9067  2.00573977156535
GPS BIIR-14M            
1 28874U 05038A   26074.33212516  .00000031  00000+0  00000+0 0  9999
2 28874  54.9547 276.9637 0128516 295.4886 216.0699  2.00572279149955
METEOSAT-9 (MSG-2)      
1 28912U 05049B   26074.07671722  .00000129  00000+0  00000+0 0  9991
2 28912   9.1481  55.0737 0000384 223.8894 327.1212  1.00271159  6050
GPS BIIR-16M            
1 29601U 06052A   26070.69292581  .00000033  00000+0  00000+0 0  9992
2 29601  54.9554 217.8682 0087716  89.5016 271.4739  2.00552224141454
GPS BIIR-17M            
1 32260U 07047A   26073.99089756  .00000037  00000+0  00000+0 0  9990
2 32260  54.0243  83.9465 0163704  86.0536 275.8703  2.00560242134929
GPS BIIR-18M            
1 32384U 07062A   26072.05935947  .00000029  00000+0  00000+0 0  9993
2 32384  55.1084 278.0153 0033186 160.7725  12.4048  2.00554193133588
GOES 14                 
1 35491U 09033A   26074.24901128  .00000108  00000+0  00000+0 0  9990
2 35491   1.4456  84.2524 0001673 273.9126  99.5446  1.00103667  5653
GOES 15                 
1 36411U 10008A   26073.93761663  .00000021  00000+0  00000+0 0  9994
2 36411   1.0327  84.9029 0002495  17.6924 110.8883  1.00270266 58692
GSAT0101 (GALILEO-PFM)  
1 37846U 11060A   26073.40826530 -.00000081  00000+0  00000+0 0  9990
2 37846  57.0247 344.3347 0004100  11.0277 349.0106  1.70475751 89508
GSAT0102 (GALILEO-FM2)  
1 37847U 11060B   26060.06318653 -.00000106  00000+0  00000+0 0  9999
2 37847  57.0301 344.6971 0005422 341.2092 154.1953  1.70475778 89286
LUCH 5A                 
1 37951U 11074B   26074.24346461 -.00000045  00000+0  00000+0 0  9995
2 37951   8.5139  75.1828 0003379 262.7020  89.7018  1.00268919 52102
METEOSAT-10 (MSG-3)     
1 38552U 12035B   26074.21027112 -.00000004  00000+0  00000+0 0  9992
2 38552   4.4478  61.4089 0002343 287.0946 260.1480  1.00269366 49915
SARSAT 13 (METOP-B)     
1 38771U 12049A   26074.28744697  .00000119  00000+0  74205-4 0  9990
2 38771  98.6630 127.6100 0001344 236.1880 123.9170 14.21446634699920
GPS BIIF-3              
1 38833U 12053A   26073.08978891 -.00000002  00000+0  00000+0 0  9995
2 38833  53.5669 147.4965 0177046  64.8456 297.0314  2.00565997 97538
GSAT0103 (GALILEO-FM3)  
1 38857U 12055A   26073.44869499  .00000040  00000+0  00000+0 0  9997
2 38857  55.7469 104.1441 0005619 286.5139  73.5020  1.70473501 83397
